[{"OBJECT_NAME":"LUR-1","OBJECT_ID":"2024-149AQ","EPOCH":"2026-03-09T19:05:45.284064","MEAN_MOTION":15.28658648,"ECCENTRICITY":0.00027765,"INCLINATION":97.379,"RA_OF_ASC_NODE":148.4255,"ARG_OF_PERICENTER":309.1571,"MEAN_ANOMALY":50.9421,"EPHEMERIS_TYPE":0,"CLASSIFICATION_TYPE":"U","NORAD_CAT_ID":60506,"ELEMENT_SET_NO":999,"REV_AT_EPOCH":8678,"BSTAR":0.0003298462,"MEAN_MOTION_DOT":9.121e-5,"MEAN_MOTION_DDOT":0},{"OBJECT_NAME":"STARLINK-36440","OBJECT_ID":"2026-008C","EPOCH":"2026-03-09T09:51:38.257344","MEAN_MOTION":15.27607504,"ECCENTRICITY":0.00030507,"INCLINATION":42.9977,"RA_OF_ASC_NODE":206.4372,"ARG_OF_PERICENTER":295.2716,"MEAN_ANOMALY":64.7819,"EPHEMERIS_TYPE":0,"CLASSIFICATION_TYPE":"U","NORAD_CAT_ID":67447,"ELEMENT_SET_NO":999,"REV_AT_EPOCH":953,"BSTAR":0.0013657814,"MEAN_MOTION_DOT":0.00037547,"MEAN_MOTION_DDOT":0}]
